COSMOS 1933             
1 18958U 88020A   26012.28785606  .00005195  00000+0  25816-3 0  9996
2 18958  82.5146 306.6916 0005861  52.0270 308.1492 15.17434112 41670
SL-3 R/B                
1 19046U 88032B   26012.23145215  .00005749  00000+0  27426-3 0  9993
2 19046  97.5111 355.7535 0028342  72.1486 288.2837 15.19118133 43532
SL-16 R/B               
1 19120U 88039B   26011.90536919  .00000000  00000+0  22853-4 0  9996
2 19120  71.0132 188.6162 0019677  64.5208 295.7949 14.19604603950324
COSMOS 1953             
1 19210U 88050A   26011.97655363  .00007979  00000+0  29628-3 0  9999
2 19210  82.5072 215.2314 0011098 330.6026  29.4588 15.27351092 29121
SL-8 R/B                
1 19257U 88053B   26012.00221721  .00000148  00000+0  56535-4 0  9994
2 19257  74.0453 216.9451 0019264  49.8500  58.7567 14.38879526968447
COSMOS 1975             
1 19573U 88093A   26011.93031842  .00008394  00000+0  31516-3 0  9995
2 19573  82.5198 174.5934 0011990  16.1067 344.0551 15.26978889 10741
SL-14 R/B               
1 19574U 88093B   26012.28772395  .00000475  00000+0  51929-4 0  9993
2 19574  82.5313  95.0009 0019719 221.6195 201.3934 14.85589813992662
SL-16 R/B               
1 19650U 88102B   26012.11428701  .00000178  00000+0  11418-3 0  9998
2 19650  70.9992 270.5343 0011986  98.6007 261.6475 14.16142284918886
INTERCOSMOS 24          
1 20261U 89080A   26011.85216381  .00000446  00000+0  12246-3 0  9991
2 20261  82.6075 141.3788 1188985  64.7016 307.2411 12.59484891659646
SL-14 R/B               
1 20262U 89080C   26012.06614081  .00000278  00000+0  83431-4 0  9993
2 20262  82.5910 209.5470 1229856 314.2718  36.3595 12.50437561653071
DELTA 1 R/B             
1 20323U 89089B   26012.12840345  .00000425  00000+0  11434-3 0  9998
2 20323  97.0736 228.5481 0067812 302.1691  57.2941 14.50604281887530
ARIANE 40 R/B           
1 20443U 90005H   26012.17752708  .00000254  00000+0  94509-4 0  9996
2 20443  98.3199  74.4891 0010354  21.4230 338.7390 14.39824788884672
