CCSDS_OMM_VERS = 2.0
CREATION_DATE  = 
ORIGINATOR     = 

OBJECT_NAME    = COSMOS 1933
OBJECT_ID      = 1988-020A
CENTER_NAME    = EARTH
REF_FRAME      = TEME
TIME_SYSTEM    = UTC
MEAN_ELEMENT_THEORY = SGP/SGP4

EPOCH          = 2026-01-12T06:54:30.763584
MEAN_MOTION    = 15.17434112
ECCENTRICITY   = .00058616
INCLINATION    = 82.5146
RA_OF_ASC_NODE = 306.6916
ARG_OF_PERICENTER = 52.0270
MEAN_ANOMALY   = 308.1492

EPHEMERIS_TYPE = 0
CLASSIFICATION_TYPE = U
NORAD_CAT_ID   = 18958
ELEMENT_SET_NO = 999
REV_AT_EPOCH   = 4167
BSTAR          = .25816484E-3
MEAN_MOTION_DOT = .5195E-4
MEAN_MOTION_DDOT = 0

CCSDS_OMM_VERS = 2.0
CREATION_DATE  = 
ORIGINATOR     = 

OBJECT_NAME    = SL-3 R/B
OBJECT_ID      = 1988-032B
CENTER_NAME    = EARTH
REF_FRAME      = TEME
TIME_SYSTEM    = UTC
MEAN_ELEMENT_THEORY = SGP/SGP4

EPOCH          = 2026-01-12T05:33:17.465760
MEAN_MOTION    = 15.19118133
ECCENTRICITY   = .00283427
INCLINATION    = 97.5111
RA_OF_ASC_NODE = 355.7535
ARG_OF_PERICENTER = 72.1486
MEAN_ANOMALY   = 288.2837

EPHEMERIS_TYPE = 0
CLASSIFICATION_TYPE = U
NORAD_CAT_ID   = 19046
ELEMENT_SET_NO = 999
REV_AT_EPOCH   = 4353
BSTAR          = .27425656E-3
MEAN_MOTION_DOT = .5749E-4
MEAN_MOTION_DDOT = 0

CCSDS_OMM_VERS = 2.0
CREATION_DATE  = 
ORIGINATOR     = 

OBJECT_NAME    = SL-16 R/B
OBJECT_ID      = 1988-039B
CENTER_NAME    = EARTH
REF_FRAME      = TEME
TIME_SYSTEM    = UTC
MEAN_ELEMENT_THEORY = SGP/SGP4

EPOCH          = 2026-01-11T21:43:43.898016
MEAN_MOTION    = 14.19604603
ECCENTRICITY   = .00196775
INCLINATION    = 71.0132
RA_OF_ASC_NODE = 188.6162
ARG_OF_PERICENTER = 64.5208
MEAN_ANOMALY   = 295.7949

EPHEMERIS_TYPE = 0
CLASSIFICATION_TYPE = U
NORAD_CAT_ID   = 19120
ELEMENT_SET_NO = 999
REV_AT_EPOCH   = 95032
BSTAR          = .22853295E-4
MEAN_MOTION_DOT = 0
MEAN_MOTION_DDOT = 0

CCSDS_OMM_VERS = 2.0
CREATION_DATE  = 
ORIGINATOR     = 

OBJECT_NAME    = COSMOS 1953
OBJECT_ID      = 1988-050A
CENTER_NAME    = EARTH
REF_FRAME      = TEME
TIME_SYSTEM    = UTC
MEAN_ELEMENT_THEORY = SGP/SGP4

EPOCH          = 2026-01-11T23:26:14.233632
MEAN_MOTION    = 15.27351092
ECCENTRICITY   = .0011098
INCLINATION    = 82.5072
RA_OF_ASC_NODE = 215.2314
ARG_OF_PERICENTER = 330.6026
MEAN_ANOMALY   = 29.4588

EPHEMERIS_TYPE = 0
CLASSIFICATION_TYPE = U
NORAD_CAT_ID   = 19210
ELEMENT_SET_NO = 999
REV_AT_EPOCH   = 2912
BSTAR          = .29628408E-3
MEAN_MOTION_DOT = .7979E-4
MEAN_MOTION_DDOT = 0

CCSDS_OMM_VERS = 2.0
CREATION_DATE  = 
ORIGINATOR     = 

OBJECT_NAME    = SL-8 R/B
OBJECT_ID      = 1988-053B
CENTER_NAME    = EARTH
REF_FRAME      = TEME
TIME_SYSTEM    = UTC
MEAN_ELEMENT_THEORY = SGP/SGP4

EPOCH          = 2026-01-12T00:03:11.566944
MEAN_MOTION    = 14.38879526
ECCENTRICITY   = .00192646
INCLINATION    = 74.0453
RA_OF_ASC_NODE = 216.9451
ARG_OF_PERICENTER = 49.8500
MEAN_ANOMALY   = 58.7567

EPHEMERIS_TYPE = 0
CLASSIFICATION_TYPE = U
NORAD_CAT_ID   = 19257
ELEMENT_SET_NO = 999
REV_AT_EPOCH   = 96844
BSTAR          = .56535074E-4
MEAN_MOTION_DOT = .148E-5
MEAN_MOTION_DDOT = 0

CCSDS_OMM_VERS = 2.0
CREATION_DATE  = 
ORIGINATOR     = 

OBJECT_NAME    = COSMOS 1975
OBJECT_ID      = 1988-093A
CENTER_NAME    = EARTH
REF_FRAME      = TEME
TIME_SYSTEM    = UTC
MEAN_ELEMENT_THEORY = SGP/SGP4

EPOCH          = 2026-01-11T22:19:39.511488
MEAN_MOTION    = 15.26978889
ECCENTRICITY   = .00119904
INCLINATION    = 82.5198
RA_OF_ASC_NODE = 174.5934
ARG_OF_PERICENTER = 16.1067
MEAN_ANOMALY   = 344.0551

EPHEMERIS_TYPE = 0
CLASSIFICATION_TYPE = U
NORAD_CAT_ID   = 19573
ELEMENT_SET_NO = 999
REV_AT_EPOCH   = 1074
BSTAR          = .31515989E-3
MEAN_MOTION_DOT = .8394E-4
MEAN_MOTION_DDOT = 0

CCSDS_OMM_VERS = 2.0
CREATION_DATE  = 
ORIGINATOR     = 

OBJECT_NAME    = SL-14 R/B
OBJECT_ID      = 1988-093B
CENTER_NAME    = EARTH
REF_FRAME      = TEME
TIME_SYSTEM    = UTC
MEAN_ELEMENT_THEORY = SGP/SGP4

EPOCH          = 2026-01-12T06:54:19.349280
MEAN_MOTION    = 14.85589813
ECCENTRICITY   = .00197193
INCLINATION    = 82.5313
RA_OF_ASC_NODE = 95.0009
ARG_OF_PERICENTER = 221.6195
MEAN_ANOMALY   = 201.3934

EPHEMERIS_TYPE = 0
CLASSIFICATION_TYPE = U
NORAD_CAT_ID   = 19574
ELEMENT_SET_NO = 999
REV_AT_EPOCH   = 99266
BSTAR          = .51929145E-4
MEAN_MOTION_DOT = .475E-5
MEAN_MOTION_DDOT = 0

CCSDS_OMM_VERS = 2.0
CREATION_DATE  = 
ORIGINATOR     = 

OBJECT_NAME    = SL-16 R/B
OBJECT_ID      = 1988-102B
CENTER_NAME    = EARTH
REF_FRAME      = TEME
TIME_SYSTEM    = UTC
MEAN_ELEMENT_THEORY = SGP/SGP4

EPOCH          = 2026-01-12T02:44:34.397664
MEAN_MOTION    = 14.16142284
ECCENTRICITY   = .00119865
INCLINATION    = 70.9992
RA_OF_ASC_NODE = 270.5343
ARG_OF_PERICENTER = 98.6007
MEAN_ANOMALY   = 261.6475

EPHEMERIS_TYPE = 0
CLASSIFICATION_TYPE = U
NORAD_CAT_ID   = 19650
ELEMENT_SET_NO = 999
REV_AT_EPOCH   = 91888
BSTAR          = .11418274E-3
MEAN_MOTION_DOT = .178E-5
MEAN_MOTION_DDOT = 0

CCSDS_OMM_VERS = 2.0
CREATION_DATE  = 
ORIGINATOR     = 

OBJECT_NAME    = INTERCOSMOS 24
OBJECT_ID      = 1989-080A
CENTER_NAME    = EARTH
REF_FRAME      = TEME
TIME_SYSTEM    = UTC
MEAN_ELEMENT_THEORY = SGP/SGP4

EPOCH          = 2026-01-11T20:27:06.953184
MEAN_MOTION    = 12.59484891
ECCENTRICITY   = .11889853
INCLINATION    = 82.6075
RA_OF_ASC_NODE = 141.3788
ARG_OF_PERICENTER = 64.7016
MEAN_ANOMALY   = 307.2411

EPHEMERIS_TYPE = 0
CLASSIFICATION_TYPE = U
NORAD_CAT_ID   = 20261
ELEMENT_SET_NO = 999
REV_AT_EPOCH   = 65964
BSTAR          = .1224569E-3
MEAN_MOTION_DOT = .446E-5
MEAN_MOTION_DDOT = 0

CCSDS_OMM_VERS = 2.0
CREATION_DATE  = 
ORIGINATOR     = 

OBJECT_NAME    = SL-14 R/B
OBJECT_ID      = 1989-080C
CENTER_NAME    = EARTH
REF_FRAME      = TEME
TIME_SYSTEM    = UTC
MEAN_ELEMENT_THEORY = SGP/SGP4

EPOCH          = 2026-01-12T01:35:14.565984
MEAN_MOTION    = 12.50437561
ECCENTRICITY   = .12298561
INCLINATION    = 82.5910
RA_OF_ASC_NODE = 209.5470
ARG_OF_PERICENTER = 314.2718
MEAN_ANOMALY   = 36.3595

EPHEMERIS_TYPE = 0
CLASSIFICATION_TYPE = U
NORAD_CAT_ID   = 20262
ELEMENT_SET_NO = 999
REV_AT_EPOCH   = 65307
BSTAR          = .83431157E-4
MEAN_MOTION_DOT = .278E-5
MEAN_MOTION_DDOT = 0

CCSDS_OMM_VERS = 2.0
CREATION_DATE  = 
ORIGINATOR     = 

OBJECT_NAME    = DELTA 1 R/B
OBJECT_ID      = 1989-089B
CENTER_NAME    = EARTH
REF_FRAME      = TEME
TIME_SYSTEM    = UTC
MEAN_ELEMENT_THEORY = SGP/SGP4

EPOCH          = 2026-01-12T03:04:54.058080
MEAN_MOTION    = 14.50604281
ECCENTRICITY   = .0067812
INCLINATION    = 97.0736
RA_OF_ASC_NODE = 228.5481
ARG_OF_PERICENTER = 302.1691
MEAN_ANOMALY   = 57.2941

EPHEMERIS_TYPE = 0
CLASSIFICATION_TYPE = U
NORAD_CAT_ID   = 20323
ELEMENT_SET_NO = 999
REV_AT_EPOCH   = 88753
BSTAR          = .11434083E-3
MEAN_MOTION_DOT = .425E-5
MEAN_MOTION_DDOT = 0

CCSDS_OMM_VERS = 2.0
CREATION_DATE  = 
ORIGINATOR     = 

OBJECT_NAME    = ARIANE 40 R/B
OBJECT_ID      = 1990-005H
CENTER_NAME    = EARTH
REF_FRAME      = TEME
TIME_SYSTEM    = UTC
MEAN_ELEMENT_THEORY = SGP/SGP4

EPOCH          = 2026-01-12T04:15:38.339712
MEAN_MOTION    = 14.39824788
ECCENTRICITY   = .00103549
INCLINATION    = 98.3199
RA_OF_ASC_NODE = 74.4891
ARG_OF_PERICENTER = 21.4230
MEAN_ANOMALY   = 338.7390

EPHEMERIS_TYPE = 0
CLASSIFICATION_TYPE = U
NORAD_CAT_ID   = 20443
ELEMENT_SET_NO = 999
REV_AT_EPOCH   = 88467
BSTAR          = .94509339E-4
MEAN_MOTION_DOT = .254E-5
MEAN_MOTION_DDOT = 0

